CTC2_L_00359001-01
1 10000U 24548YA  26075.70045139  .00000000  00000+0  00000-0 0  9992
2 10000  75.0000   0.0000 0000000   0.0000   0.0000 13.29142335    19
CTC2_L_00359001-02
1 10001U 25354VV  26075.70045139  .00000000  00000+0  00000-0 0  9999
2 10001  75.0000   0.0000 0000000   0.0000  90.0000 13.29142335    19
CTC2_L_00359001-03
1 10002U 24030NJ  26075.70045139  .00000000  00000+0  00000-0 0  9990
2 10002  75.0000   0.0000 0000000   0.0000 180.0000 13.29142335    10
CTC2_L_00359001-04
1 10003U 24126OQ  26075.70045139  .00000000  00000+0  00000-0 0  9997
2 10003  75.0000   0.0000 0000000   0.0000 270.0000 13.29142335    11
CTC2_L_00359002-01
1 10004U 24759TU  26075.70045139  .00000000  00000+0  00000-0 0  9990
2 10004  75.0000  12.0000 0000000   0.0000  12.0000 13.29142335    19
CTC2_L_00359002-02
1 10005U 26257YK  26075.70045139  .00000000  00000+0  00000-0 0  9996
2 10005  75.0000  12.0000 0000000   0.0000 102.0000 13.29142335    10
CTC2_L_00359002-03
1 10006U 23136QI  26075.70045139  .00000000  00000+0  00000-0 0  9990
2 10006  75.0000  12.0000 0000000   0.0000 192.0000 13.29142335    10
CTC2_L_00359002-04
1 10007U 23416AA  26075.70045139  .00000000  00000+0  00000-0 0  9992
2 10007  75.0000  12.0000 0000000   0.0000 282.0000 13.29142335    11
CTC2_L_00359003-01
1 10008U 24770TZ  26075.70045139  .00000000  00000+0  00000-0 0  9997
2 10008  75.0000  24.0000 0000000   0.0000  24.0000 13.29142335    19
CTC2_L_00359003-02
1 10009U 23158CK  26075.70045139  .00000000  00000+0  00000-0 0  9997
2 10009  75.0000  24.0000 0000000   0.0000 114.0000 13.29142335    10
CTC2_L_00359003-03
1 10010U 24035NS  26075.70045139  .00000000  00000+0  00000-0 0  9994
2 10010  75.0000  24.0000 0000000   0.0000 204.0000 13.29142335    12
CTC2_L_00359003-04
1 10011U 26151OA  26075.70045139  .00000000  00000+0  00000-0 0  9996
2 10011  75.0000  24.0000 0000000   0.0000 294.0000 13.29142335    12
CTC2_L_00359004-01
1 10012U 22769UI  26075.70045139  .00000000  00000+0  00000-0 0  9998
2 10012  75.0000  36.0000 0000000   0.0000  36.0000 13.29142335    10
CTC2_L_00359004-02
1 10013U 26574WT  26075.70045139  .00000000  00000+0  00000-0 0  9997
2 10013  75.0000  36.0000 0000000   0.0000 126.0000 13.29142335    11
CTC2_L_00359004-03
1 10014U 25922VQ  26075.70045139  .00000000  00000+0  00000-0 0  9994
2 10014  75.0000  36.0000 0000000   0.0000 216.0000 13.29142335    12
CTC2_L_00359004-04
1 10015U 23545TK  26075.70045139  .00000000  00000+0  00000-0 0  9994
2 10015  75.0000  36.0000 0000000   0.0000 306.0000 13.29142335    13
CTC2_L_00359005-01
1 10016U 26153II  26075.70045139  .00000000  00000+0  00000-0 0  9993
2 10016  75.0000  48.0000 0000000   0.0000  48.0000 13.29142335    10
CTC2_L_00359005-02
1 10017U 24307FL  26075.70045139  .00000000  00000+0  00000-0 0  9993
2 10017  75.0000  48.0000 0000000   0.0000 138.0000 13.29142335    11
CTC2_L_00359005-03
1 10018U 23696VW  26075.70045139  .00000000  00000+0  00000-0 0  9994
2 10018  75.0000  48.0000 0000000   0.0000 228.0000 13.29142335    12
CTC2_L_00359005-04
1 10019U 22545HK  26075.70045139  .00000000  00000+0  00000-0 0  9997
2 10019  75.0000  48.0000 0000000   0.0000 318.0000 13.29142335    13
CTC2_L_00359006-01
1 10020U 22550CP  26075.70045139  .00000000  00000+0  00000-0 0  9995
2 10020  75.0000  60.0000 0000000   0.0000  60.0000 13.29142335    13
CTC2_L_00359006-02
1 10021U 26375LJ  26075.70045139  .00000000  00000+0  00000-0 0  9995
2 10021  75.0000  60.0000 0000000   0.0000 150.0000 13.29142335    14
CTC2_L_00359006-03
1 10022U 26126DI  26075.70045139  .00000000  00000+0  00000-0 0  9990
2 10022  75.0000  60.0000 0000000   0.0000 240.0000 13.29142335    15
CTC2_L_00359006-04
1 10023U 22957XC  26075.70045139  .00000000  00000+0  00000-0 0  9999
2 10023  75.0000  60.0000 0000000   0.0000 330.0000 13.29142335    16
CTC2_L_00359007-01
1 10024U 23768LU  26075.70045139  .00000000  00000+0  00000-0 0  9991
2 10024  75.0000  72.0000 0000000   0.0000  72.0000 13.29142335    13
CTC2_L_00359007-02
1 10025U 25794MY  26075.70045139  .00000000  00000+0  00000-0 0  9993
2 10025  75.0000  72.0000 0000000   0.0000 162.0000 13.29142335    14
CTC2_L_00359007-03
1 10026U 24919DT  26075.70045139  .00000000  00000+0  00000-0 0  9992
2 10026  75.0000  72.0000 0000000   0.0000 252.0000 13.29142335    15
CTC2_L_00359007-04
1 10027U 22203NO  26075.70045139  .00000000  00000+0  00000-0 0  9997
2 10027  75.0000  72.0000 0000000   0.0000 342.0000 13.29142335    16
CTC2_L_00359008-01
1 10028U 26467QN  26075.70045139  .00000000  00000+0  00000-0 0  9994
2 10028  75.0000  84.0000 0000000   0.0000  84.0000 13.29142335    13
CTC2_L_00359008-02
1 10029U 26675SS  26075.70045139  .00000000  00000+0  00000-0 0  9996
2 10029  75.0000  84.0000 0000000   0.0000 174.0000 13.29142335    14
CTC2_L_00359008-03
1 10030U 23208WG  26075.70045139  .00000000  00000+0  00000-0 0  9997
2 10030  75.0000  84.0000 0000000   0.0000 264.0000 13.29142335    16
CTC2_L_00359008-04
1 10031U 26503ZF  26075.70045139  .00000000  00000+0  00000-0 0  9999
2 10031  75.0000  84.0000 0000000   0.0000 354.0000 13.29142335    17
CTC2_L_00359009-01
1 10032U 26102YO  26075.70045139  .00000000  00000+0  00000-0 0  9995
2 10032  75.0000  96.0000 0000000   0.0000  96.0000 13.29142335    14
CTC2_L_00359009-02
1 10033U 24429BL  26075.70045139  .00000000  00000+0  00000-0 0  9996
2 10033  75.0000  96.0000 0000000   0.0000 186.0000 13.29142335    15
CTC2_L_00359009-03
1 10034U 22302VO  26075.70045139  .00000000  00000+0  00000-0 0  9995
2 10034  75.0000  96.0000 0000000   0.0000 276.0000 13.29142335    16
CTC2_L_00359009-04
1 10035U 23749SN  26075.70045139  .00000000  00000+0  00000-0 0  9992
2 10035  75.0000  96.0000 0000000   0.0000   6.0000 13.29142335    18
CTC2_L_00359010-01
1 10036U 25058NM  26075.70045139  .00000000  00000+0  00000-0 0  9998
2 10036  75.0000 108.0000 0000000   0.0000 108.0000 13.29142335    16
CTC2_L_00359010-02
1 10037U 25989IB  26075.70045139  .00000000  00000+0  00000-0 0  9992
2 10037  75.0000 108.0000 0000000   0.0000 198.0000 13.29142335    16
CTC2_L_00359010-03
1 10038U 23117QR  26075.70045139  .00000000  00000+0  00000-0 0  9994
2 10038  75.0000 108.0000 0000000   0.0000 288.0000 13.29142335    17
CTC2_L_00359010-04
1 10039U 25459BF  26075.70045139  .00000000  00000+0  00000-0 0  9996
2 10039  75.0000 108.0000 0000000   0.0000  18.0000 13.29142335    19
CTC2_L_00359011-01
1 10040U 24438NZ  26075.70045139  .00000000  00000+0  00000-0 0  9994
2 10040  75.0000 120.0000 0000000   0.0000 120.0000 13.29142335    19
CTC2_L_00359011-02
1 10041U 22309P   26075.70045139  .00000000  00000+0  00000-0 0  9990
2 10041  75.0000 120.0000 0000000   0.0000 210.0000 13.29142335    10
CTC2_L_00359011-03
1 10042U 24692GR  26075.70045139  .00000000  00000+0  00000-0 0  9998
2 10042  75.0000 120.0000 0000000   0.0000 300.0000 13.29142335    11
CTC2_L_00359011-04
1 10043U 23372MD  26075.70045139  .00000000  00000+0  00000-0 0  9993
2 10043  75.0000 120.0000 0000000   0.0000  30.0000 13.29142335    12
CTC2_L_00359012-01
1 10044U 25679ND  26075.70045139  .00000000  00000+0  00000-0 0  9996
2 10044  75.0000 132.0000 0000000   0.0000 132.0000 13.29142335    19
CTC2_L_00359012-02
1 10045U 22855IK  26075.70045139  .00000000  00000+0  00000-0 0  9990
2 10045  75.0000 132.0000 0000000   0.0000 222.0000 13.29142335    10
CTC2_L_00359012-03
1 10046U 22646VE  26075.70045139  .00000000  00000+0  00000-0 0  9999
2 10046  75.0000 132.0000 0000000   0.0000 312.0000 13.29142335    11
CTC2_L_00359012-04
1 10047U 22235AD  26075.70045139  .00000000  00000+0  00000-0 0  9994
2 10047  75.0000 132.0000 0000000   0.0000  42.0000 13.29142335    12
CTC2_L_00359013-01
1 10048U 24188ZF  26075.70045139  .00000000  00000+0  00000-0 0  9994
2 10048  75.0000 144.0000 0000000   0.0000 144.0000 13.29142335    19
CTC2_L_00359013-02
1 10049U 23755LA  26075.70045139  .00000000  00000+0  00000-0 0  9994
2 10049  75.0000 144.0000 0000000   0.0000 234.0000 13.29142335    10
CTC2_L_00359013-03
1 10050U 23620HE  26075.70045139  .00000000  00000+0  00000-0 0  9997
2 10050  75.0000 144.0000 0000000   0.0000 324.0000 13.29142335    12
CTC2_L_00359013-04
1 10051U 25825GP  26075.70045139  .00000000  00000+0  00000-0 0  9997
2 10051  75.0000 144.0000 0000000   0.0000  54.0000 13.29142335    13
CTC2_L_00359014-01
1 10052U 23725HM  26075.70045139  .00000000  00000+0  00000-0 0  9995
2 10052  75.0000 156.0000 0000000   0.0000 156.0000 13.29142335    10
CTC2_L_00359014-02
1 10053U 22568PJ  26075.70045139  .00000000  00000+0  00000-0 0  9990
2 10053  75.0000 156.0000 0000000   0.0000 246.0000 13.29142335    11
CTC2_L_00359014-03
1 10054U 22254EH  26075.70045139  .00000000  00000+0  00000-0 0  9993
2 10054  75.0000 156.0000 0000000   0.0000 336.0000 13.29142335    12
CTC2_L_00359014-04
1 10055U 22198RD  26075.70045139  .00000000  00000+0  00000-0 0  9991
2 10055  75.0000 156.0000 0000000   0.0000  66.0000 13.29142335    13
CTC2_L_00359015-01
1 10056U 22943ZT  26075.70045139  .00000000  00000+0  00000-0 0  9990
2 10056  75.0000 168.0000 0000000   0.0000 168.0000 13.29142335    10
CTC2_L_00359015-02
1 10057U 22476RI  26075.70045139  .00000000  00000+0  00000-0 0  9992
2 10057  75.0000 168.0000 0000000   0.0000 258.0000 13.29142335    11
CTC2_L_00359015-03
1 10058U 23404ZS  26075.70045139  .00000000  00000+0  00000-0 0  9995
2 10058  75.0000 168.0000 0000000   0.0000 348.0000 13.29142335    12
CTC2_L_00359015-04
1 10059U 24996WS  26075.70045139  .00000000  00000+0  00000-0 0  9993
2 10059  75.0000 168.0000 0000000   0.0000  78.0000 13.29142335    13
CTC2_L_00359016-01
1 10060U 24457EO  26075.70045139  .00000000  00000+0  00000-0 0  9997
2 10060  75.0000 180.0000 0000000   0.0000 180.0000 13.29142335    13
CTC2_L_00359016-02
1 10061U 24328QW  26075.70045139  .00000000  00000+0  00000-0 0  9995
2 10061  75.0000 180.0000 0000000   0.0000 270.0000 13.29142335    14
